COSMOS 2251 DEB         
1 36002U 93036AWU 17343.32612814  .00000670  00000-0  11207-3 0  9994
2 36002  74.0133 326.0046 0073184 119.6797 241.1687 14.70246908453399
